{
  "type": "FeatureCollection",
  "features": [
    {
      "type": "Feature",
      "properties": {
        "norad_id": 36585,
        "name": "GPS BIIF-1  (PRN 25)",
        "group": "gnss",
        "lat": -11.40412989151696,
        "lon": -152.5817590729735,
        "alt_km": 20117.846024781236,
        "timestamp": "2025-12-20T22:39:10.872035+00:00",
        "meta_object_name": "GPS BIIF-1  (PRN 25)",
        "meta_object_id": "2010-022A",
        "meta_epoch": "2025-12-20T02:58:58.243008",
        "meta_mean_motion": 2.00553637,
        "meta_eccentricity": 0.01264155,
        "meta_inclination": 54.299,
        "meta_ra_of_asc_node": 215.7761,
        "meta_arg_of_pericenter": 65.1663,
        "meta_mean_anomaly": 50.4936,
        "meta_ephemeris_type": 0,
        "meta_classification_type": "U",
        "meta_norad_cat_id": 36585,
        "meta_element_set_no": 999,
        "meta_rev_at_epoch": 11400,
        "meta_bstar": 0,
        "meta_mean_motion_dot": 8e-07,
        "meta_mean_motion_ddot": 0,
        "tle_line1": "1 36585U 10022A   25354.12428522  .00000080  00000+0  00000+0 0  9993",
        "tle_line2": "2 36585  54.2990 215.7761 0126415  65.1663  50.4936  2.00553637114007"
      },
      "geometry": {
        "type": "Point",
        "coordinates": [
          -152.5817590729735,
          -11.40412989151696
        ]
      }
    },
    {
      "type": "Feature",
      "properties": {
        "norad_id": 36828,
        "name": "BEIDOU-2 IGSO-1 (C06)",
        "group": "gnss",
        "lat": 10.664490138760087,
        "lon": 172.3565655081032,
        "alt_km": 35983.82777386958,
        "timestamp": "2025-12-20T22:39:10.872045+00:00",
        "meta_object_name": "BEIDOU-2 IGSO-1 (C06)",
        "meta_object_id": "2010-036A",
        "meta_epoch": "2025-12-14T21:38:21.623424",
        "meta_mean_motion": 1.00275796,
        "meta_eccentricity": 0.00512569,
        "meta_inclination": 54.2866,
        "meta_ra_of_asc_node": 164.6279,
        "meta_arg_of_pericenter": 215.8888,
        "meta_mean_anomaly": 135.7931,
        "meta_ephemeris_type": 0,
        "meta_classification_type": "U",
        "meta_norad_cat_id": 36828,
        "meta_element_set_no": 999,
        "meta_rev_at_epoch": 5624,
        "meta_bstar": 0,
        "meta_mean_motion_dot": -2.4e-07,
        "meta_mean_motion_ddot": 0,
        "tle_line1": "1 36828U 10036A   25348.90163916 -.00000024  00000+0  00000+0 0  9999",
        "tle_line2": "2 36828  54.2866 164.6279 0051256 215.8888 135.7931  1.00275796 56247"
      },
      "geometry": {
        "type": "Point",
        "coordinates": [
          172.3565655081032,
          10.664490138760087
        ]
      }
    },
    {
      "type": "Feature",
      "properties": {
        "norad_id": 37210,
        "name": "BEIDOU-2 G4 (C04)",
        "group": "gnss",
        "lat": 1.0940937949102614,
        "lon": -130.39097733047066,
        "alt_km": 35748.899454251914,
        "timestamp": "2025-12-20T22:39:10.872056+00:00",
        "meta_object_name": "BEIDOU-2 G4 (C04)",
        "meta_object_id": "2010-057A",
        "meta_epoch": "2025-12-20T13:59:26.739168",
        "meta_mean_motion": 1.00272023,
        "meta_eccentricity": 0.00104282,
        "meta_inclination": 3.2031,
        "meta_ra_of_asc_node": 69.9094,
        "meta_arg_of_pericenter": 192.8314,
        "meta_mean_anomaly": 196.6191,
        "meta_ephemeris_type": 0,
        "meta_classification_type": "U",
        "meta_norad_cat_id": 37210,
        "meta_element_set_no": 999,
        "meta_rev_at_epoch": 5550,
        "meta_bstar": 0,
        "meta_mean_motion_dot": -9e-07,
        "meta_mean_motion_ddot": 0,
        "tle_line1": "1 37210U 10057A   25354.58294837 -.00000090  00000+0  00000+0 0  9999",
        "tle_line2": "2 37210   3.2031  69.9094 0010428 192.8314 196.6191  1.00272023 55509"
      },
      "geometry": {
        "type": "Point",
        "coordinates": [
          -130.39097733047066,
          1.0940937949102614
        ]
      }
    },
    {
      "type": "Feature",
      "properties": {
        "norad_id": 37256,
        "name": "BEIDOU-2 IGSO-2 (C07)",
        "group": "gnss",
        "lat": -47.54983823732314,
        "lon": 174.8598859820113,
        "alt_km": 35650.48540553378,
        "timestamp": "2025-12-20T22:39:10.872067+00:00",
        "meta_object_name": "BEIDOU-2 IGSO-2 (C07)",
        "meta_object_id": "2010-068A",
        "meta_epoch": "2025-12-20T13:52:30.782784",
        "meta_mean_motion": 1.00284035,
        "meta_eccentricity": 0.00484196,
        "meta_inclination": 47.8716,
        "meta_ra_of_asc_node": 274.0527,
        "meta_arg_of_pericenter": 216.3627,
        "meta_mean_anomaly": 275.0459,
        "meta_ephemeris_type": 0,
        "meta_classification_type": "U",
        "meta_norad_cat_id": 37256,
        "meta_element_set_no": 999,
        "meta_rev_at_epoch": 5500,
        "meta_bstar": 0,
        "meta_mean_motion_dot": -1.89e-06,
        "meta_mean_motion_ddot": 0,
        "tle_line1": "1 37256U 10068A   25354.57813406 -.00000189  00000+0  00000+0 0  9998",
        "tle_line2": "2 37256  47.8716 274.0527 0048419 216.3627 275.0459  1.00284035 55003"
      },
      "geometry": {
        "type": "Point",
        "coordinates": [
          174.8598859820113,
          -47.54983823732314
        ]
      }
    },
    {
      "type": "Feature",
      "properties": {
        "norad_id": 37384,
        "name": "BEIDOU-2 IGSO-3 (C08)",
        "group": "gnss",
        "lat": 38.9543907920373,
        "lon": -163.3973427689976,
        "alt_km": 35693.26053683605,
        "timestamp": "2025-12-20T22:39:10.872077+00:00",
        "meta_object_name": "BEIDOU-2 IGSO-3 (C08)",
        "meta_object_id": "2011-013A",
        "meta_epoch": "2025-12-20T13:44:20.685696",
        "meta_mean_motion": 1.00268973,
        "meta_eccentricity": 0.0035383,
        "meta_inclination": 62.1535,
        "meta_ra_of_asc_node": 41.8418,
        "meta_arg_of_pericenter": 187.6388,
        "meta_mean_anomaly": 173.3807,
        "meta_ephemeris_type": 0,
        "meta_classification_type": "U",
        "meta_norad_cat_id": 37384,
        "meta_element_set_no": 999,
        "meta_rev_at_epoch": 5387,
        "meta_bstar": 0,
        "meta_mean_motion_dot": -1.64e-06,
        "meta_mean_motion_ddot": 0,
        "tle_line1": "1 37384U 11013A   25354.57246164 -.00000164  00000+0  00000+0 0  9995",
        "tle_line2": "2 37384  62.1535  41.8418 0035383 187.6388 173.3807  1.00268973 53876"
      },
      "geometry": {
        "type": "Point",
        "coordinates": [
          -163.3973427689976,
          38.9543907920373
        ]
      }
    },
    {
      "type": "Feature",
      "properties": {
        "norad_id": 37605,
        "name": "GSAT-8 (GAGAN/PRN 127)",
        "group": "gnss",
        "lat": 1.1064286516149469,
        "lon": 124.56541772687156,
        "alt_km": 35816.90854604977,
        "timestamp": "2025-12-20T22:39:10.872087+00:00",
        "meta_object_name": "GSAT-8 (GAGAN/PRN 127)",
        "meta_object_id": "2011-022A",
        "meta_epoch": "2025-12-20T08:53:21.810912",
        "meta_mean_motion": 1.00270839,
        "meta_eccentricity": 0.00088419,
        "meta_inclination": 1.6683,
        "meta_ra_of_asc_node": 84.1172,
        "meta_arg_of_pericenter": 185.6408,
        "meta_mean_anomaly": 7.8666,
        "meta_ephemeris_type": 0,
        "meta_classification_type": "U",
        "meta_norad_cat_id": 37605,
        "meta_element_set_no": 999,
        "meta_rev_at_epoch": 5142,
        "meta_bstar": 0,
        "meta_mean_motion_dot": 1.07e-06,
        "meta_mean_motion_ddot": 0,
        "tle_line1": "1 37605U 11022A   25354.37039133  .00000107  00000+0  00000+0 0  9991",
        "tle_line2": "2 37605   1.6683  84.1172 0008841 185.6408   7.8666  1.00270839 51428"
      },
      "geometry": {
        "type": "Point",
        "coordinates": [
          124.56541772687156,
          1.1064286516149469
        ]
      }
    },
    {
      "type": "Feature",
      "properties": {
        "norad_id": 37763,
        "name": "BEIDOU-2 IGSO-4 (C09)",
        "group": "gnss",
        "lat": -1.384512000852874,
        "lon": 166.2745440262182,
        "alt_km": 36166.24165353469,
        "timestamp": "2025-12-20T22:39:10.872098+00:00",
        "meta_object_name": "BEIDOU-2 IGSO-4 (C09)",
        "meta_object_id": "2011-038A",
        "meta_epoch": "2025-12-17T23:29:21.564384",
        "meta_mean_motion": 1.00281312,
        "meta_eccentricity": 0.01493143,
        "meta_inclination": 54.5836,
        "meta_ra_of_asc_node": 167.2999,
        "meta_arg_of_pericenter": 230.2426,
        "meta_mean_anomaly": 136.1954,
        "meta_ephemeris_type": 0,
        "meta_classification_type": "U",
        "meta_norad_cat_id": 37763,
        "meta_element_set_no": 999,
        "meta_rev_at_epoch": 5283,
        "meta_bstar": 0,
        "meta_mean_motion_dot": 6.5e-07,
        "meta_mean_motion_ddot": 0,
        "tle_line1": "1 37763U 11038A   25351.97872181  .00000065  00000+0  00000+0 0  9997",
        "tle_line2": "2 37763  54.5836 167.2999 0149314 230.2426 136.1954  1.00281312 52838"
      },
      "geometry": {
        "type": "Point",
        "coordinates": [
          166.2745440262182,
          -1.384512000852874
        ]
      }
    }
  ]
}